STARLINK-36805          
1 68116U 26044R   26093.83335647 -.01932374  00000+0 -37506-1 0  9999
2 68116  97.2856  55.1277 0002045 107.1851 213.0585 15.50710264  5440
STARLINK-36844          
1 68117U 26044S   26093.83335647 -.01872189  00000+0 -34354-1 0  9995
2 68117  97.2854  55.1461 0001719  78.5300 291.1757 15.52715373  5391
STARLINK-36789          
1 68118U 26044T   26093.83335647 -.01882887  00000+0 -33536-1 0  9993
2 68118  97.2855  55.1535 0001651  85.6297 301.7486 15.53555393  5396
STARLINK-36850          
1 68119U 26044U   26093.83335647 -.01878984  00000+0 -33443-1 0  9994
2 68119  97.2854  55.1547 0001600  77.4910 312.1332 15.53567733  5391
STARLINK-36868          
1 68120U 26044V   26093.83335647 -.01876330  00000+0 -32733-1 0  9990
2 68120  97.2854  55.1623 0001641  87.7642 319.8383 15.54111077  5396
STARLINK-36855          
1 68121U 26044W   26093.83335647 -.01872481  00000+0 -34426-1 0  9995
2 68121  97.2853  55.1529 0001593  87.7957 296.9309 15.52663241  5392
STARLINK-36366          
1 68122U 26044X   26093.83335647 -.01876801  00000+0 -34131-1 0  9999
2 68122  97.2856  55.1561 0001628  91.8201 300.7451 15.52972129  5445
STARLINK-36922          
1 68123U 26044Y   26093.83335647 -.01873685  00000+0 -33442-1 0  9991
2 68123  97.2854  55.1665 0001921  82.9669 333.0931 15.53477882  5443
STARLINK-36938          
1 68124U 26044Z   26093.83043313  .00488069  00000+0  30697-2 0  9993
2 68124  97.2868  55.3011 0001371  58.2655 301.8744 15.75339664  5440
STARLINK-36839          
1 68125U 26044AA  26093.83335647 -.01884544  00000+0 -33603-1 0  9998
2 68125  97.2855  55.1641 0001942  78.7788 332.0257 15.53524982  5396
ECHOSTAR 25             
1 68126U 26045A   26093.72286226  .00000056  00000+0  00000+0 0  9994
2 68126   0.0375 280.5483 0001621 152.4872 250.3902  1.00270662   240
ICOR SV                 
1 68127U 26046A   26093.52403713  .00584600  12268-4  69972-3 0  9999
2 68127 123.0718 319.5513 0089536 234.5944 124.6746 15.99930156  3558
FIREFLY ALPHA R/B       
1 68128U 26046B   26093.55093146  .00051483  00000+0  67811-3 0  9992
2 68128 123.0922 314.7009 0017163  28.8315 331.3691 15.57804670  3513
GUOWANG GROUP 20 OBJECT*
1 68129U 26047A   26093.45001185 -.00000084  00000+0  53273-4 0  9995
2 68129  50.0057 330.4025 0001022 163.3408 196.7522 13.84283599  3032
GUOWANG GROUP 20 OBJECT*
1 68130U 26047B   26091.21157936 -.00000062  00000+0  69791-4 0  9993
2 68130  50.0054 339.2252 0000133 185.6237 174.4659 13.87767313  2711
GUOWANG GROUP 20 OBJECT*
1 68131U 26047C   26092.50577046 -.00000096  00000+0  42136-4 0  9996
2 68131  50.0019 334.0677 0000669 236.5521 123.5312 13.86320500  2907
