[{"OBJECT_NAME":"STARLINK-36805","OBJECT_ID":"2026-044R","EPOCH":"2026-04-03T20:00:01.999008","MEAN_MOTION":15.50710264,"ECCENTRICITY":0.0002045,"INCLINATION":97.2856,"RA_OF_ASC_NODE":55.1277,"ARG_OF_PERICENTER":107.1851,"MEAN_ANOMALY":213.0585,"EPHEMERIS_TYPE":0,"CLASSIFICATION_TYPE":"U","NORAD_CAT_ID":68116,"ELEMENT_SET_NO":999,"REV_AT_EPOCH":544,"BSTAR":-0.037506,"MEAN_MOTION_DOT":-0.01932374,"MEAN_MOTION_DDOT":0},{"OBJECT_NAME":"STARLINK-36844","OBJECT_ID":"2026-044S","EPOCH":"2026-04-03T20:00:01.999008","MEAN_MOTION":15.52715373,"ECCENTRICITY":0.0001719,"INCLINATION":97.2854,"RA_OF_ASC_NODE":55.1461,"ARG_OF_PERICENTER":78.53,"MEAN_ANOMALY":291.1757,"EPHEMERIS_TYPE":0,"CLASSIFICATION_TYPE":"U","NORAD_CAT_ID":68117,"ELEMENT_SET_NO":999,"REV_AT_EPOCH":539,"BSTAR":-0.034354,"MEAN_MOTION_DOT":-0.01872189,"MEAN_MOTION_DDOT":0},{"OBJECT_NAME":"STARLINK-36789","OBJECT_ID":"2026-044T","EPOCH":"2026-04-03T20:00:01.999008","MEAN_MOTION":15.53555393,"ECCENTRICITY":0.0001651,"INCLINATION":97.2855,"RA_OF_ASC_NODE":55.1535,"ARG_OF_PERICENTER":85.6297,"MEAN_ANOMALY":301.7486,"EPHEMERIS_TYPE":0,"CLASSIFICATION_TYPE":"U","NORAD_CAT_ID":68118,"ELEMENT_SET_NO":999,"REV_AT_EPOCH":539,"BSTAR":-0.033536,"MEAN_MOTION_DOT":-0.01882887,"MEAN_MOTION_DDOT":0},{"OBJECT_NAME":"STARLINK-36850","OBJECT_ID":"2026-044U","EPOCH":"2026-04-03T20:00:01.999008","MEAN_MOTION":15.53567733,"ECCENTRICITY":0.00016,"INCLINATION":97.2854,"RA_OF_ASC_NODE":55.1547,"ARG_OF_PERICENTER":77.491,"MEAN_ANOMALY":312.1332,"EPHEMERIS_TYPE":0,"CLASSIFICATION_TYPE":"U","NORAD_CAT_ID":68119,"ELEMENT_SET_NO":999,"REV_AT_EPOCH":539,"BSTAR":-0.033443,"MEAN_MOTION_DOT":-0.01878984,"MEAN_MOTION_DDOT":0},{"OBJECT_NAME":"STARLINK-36868","OBJECT_ID":"2026-044V","EPOCH":"2026-04-03T20:00:01.999008","MEAN_MOTION":15.54111077,"ECCENTRICITY":0.0001641,"INCLINATION":97.2854,"RA_OF_ASC_NODE":55.1623,"ARG_OF_PERICENTER":87.7642,"MEAN_ANOMALY":319.8383,"EPHEMERIS_TYPE":0,"CLASSIFICATION_TYPE":"U","NORAD_CAT_ID":68120,"ELEMENT_SET_NO":999,"REV_AT_EPOCH":539,"BSTAR":-0.032733,"MEAN_MOTION_DOT":-0.0187633,"MEAN_MOTION_DDOT":0},{"OBJECT_NAME":"STARLINK-36855","OBJECT_ID":"2026-044W","EPOCH":"2026-04-03T20:00:01.999008","MEAN_MOTION":15.52663241,"ECCENTRICITY":0.0001593,"INCLINATION":97.2853,"RA_OF_ASC_NODE":55.1529,"ARG_OF_PERICENTER":87.7957,"MEAN_ANOMALY":296.9309,"EPHEMERIS_TYPE":0,"CLASSIFICATION_TYPE":"U","NORAD_CAT_ID":68121,"ELEMENT_SET_NO":999,"REV_AT_EPOCH":539,"BSTAR":-0.034426,"MEAN_MOTION_DOT":-0.01872481,"MEAN_MOTION_DDOT":0},{"OBJECT_NAME":"STARLINK-36366","OBJECT_ID":"2026-044X","EPOCH":"2026-04-03T20:00:01.999008","MEAN_MOTION":15.52972129,"ECCENTRICITY":0.0001628,"INCLINATION":97.2856,"RA_OF_ASC_NODE":55.1561,"ARG_OF_PERICENTER":91.8201,"MEAN_ANOMALY":300.7451,"EPHEMERIS_TYPE":0,"CLASSIFICATION_TYPE":"U","NORAD_CAT_ID":68122,"ELEMENT_SET_NO":999,"REV_AT_EPOCH":544,"BSTAR":-0.034131,"MEAN_MOTION_DOT":-0.01876801,"MEAN_MOTION_DDOT":0},{"OBJECT_NAME":"STARLINK-36922","OBJECT_ID":"2026-044Y","EPOCH":"2026-04-03T20:00:01.999008","MEAN_MOTION":15.53477882,"ECCENTRICITY":0.0001921,"INCLINATION":97.2854,"RA_OF_ASC_NODE":55.1665,"ARG_OF_PERICENTER":82.9669,"MEAN_ANOMALY":333.0931,"EPHEMERIS_TYPE":0,"CLASSIFICATION_TYPE":"U","NORAD_CAT_ID":68123,"ELEMENT_SET_NO":999,"REV_AT_EPOCH":544,"BSTAR":-0.033442,"MEAN_MOTION_DOT":-0.01873685,"MEAN_MOTION_DDOT":0},{"OBJECT_NAME":"STARLINK-36938","OBJECT_ID":"2026-044Z","EPOCH":"2026-04-03T19:55:49.422432","MEAN_MOTION":15.75339664,"ECCENTRICITY":0.0001371,"INCLINATION":97.2868,"RA_OF_ASC_NODE":55.3011,"ARG_OF_PERICENTER":58.2655,"MEAN_ANOMALY":301.8744,"EPHEMERIS_TYPE":0,"CLASSIFICATION_TYPE":"U","NORAD_CAT_ID":68124,"ELEMENT_SET_NO":999,"REV_AT_EPOCH":544,"BSTAR":0.0030697,"MEAN_MOTION_DOT":0.00488069,"MEAN_MOTION_DDOT":0},{"OBJECT_NAME":"STARLINK-36839","OBJECT_ID":"2026-044AA","EPOCH":"2026-04-03T20:00:01.999008","MEAN_MOTION":15.53524982,"ECCENTRICITY":0.0001942,"INCLINATION":97.2855,"RA_OF_ASC_NODE":55.1641,"ARG_OF_PERICENTER":78.7788,"MEAN_ANOMALY":332.0257,"EPHEMERIS_TYPE":0,"CLASSIFICATION_TYPE":"U","NORAD_CAT_ID":68125,"ELEMENT_SET_NO":999,"REV_AT_EPOCH":539,"BSTAR":-0.033603,"MEAN_MOTION_DOT":-0.01884544,"MEAN_MOTION_DDOT":0},{"OBJECT_NAME":"ECHOSTAR 25","OBJECT_ID":"2026-045A","EPOCH":"2026-04-03T17:20:55.299264","MEAN_MOTION":1.00270662,"ECCENTRICITY":0.0001621,"INCLINATION":0.0375,"RA_OF_ASC_NODE":280.5483,"ARG_OF_PERICENTER":152.4872,"MEAN_ANOMALY":250.3902,"EPHEMERIS_TYPE":0,"CLASSIFICATION_TYPE":"U","NORAD_CAT_ID":68126,"ELEMENT_SET_NO":999,"REV_AT_EPOCH":24,"BSTAR":0,"MEAN_MOTION_DOT":5.6e-7,"MEAN_MOTION_DDOT":0},{"OBJECT_NAME":"ICOR SV","OBJECT_ID":"2026-046A","EPOCH":"2026-04-03T12:34:36.808032","MEAN_MOTION":15.99930156,"ECCENTRICITY":0.00895367,"INCLINATION":123.0718,"RA_OF_ASC_NODE":319.5513,"ARG_OF_PERICENTER":234.5944,"MEAN_ANOMALY":124.6746,"EPHEMERIS_TYPE":0,"CLASSIFICATION_TYPE":"U","NORAD_CAT_ID":68127,"ELEMENT_SET_NO":999,"REV_AT_EPOCH":355,"BSTAR":0.00069972429,"MEAN_MOTION_DOT":0.005846,"MEAN_MOTION_DDOT":1.2267707e-5},{"OBJECT_NAME":"FIREFLY ALPHA R/B","OBJECT_ID":"2026-046B","EPOCH":"2026-04-03T13:13:20.478144","MEAN_MOTION":15.5780467,"ECCENTRICITY":0.00171635,"INCLINATION":123.0922,"RA_OF_ASC_NODE":314.7009,"ARG_OF_PERICENTER":28.8315,"MEAN_ANOMALY":331.3691,"EPHEMERIS_TYPE":0,"CLASSIFICATION_TYPE":"U","NORAD_CAT_ID":68128,"ELEMENT_SET_NO":999,"REV_AT_EPOCH":351,"BSTAR":0.0006781092,"MEAN_MOTION_DOT":0.00051483,"MEAN_MOTION_DDOT":0},{"OBJECT_NAME":"GUOWANG GROUP 20 OBJECT A","OBJECT_ID":"2026-047A","EPOCH":"2026-04-03T10:48:01.023840","MEAN_MOTION":13.84283599,"ECCENTRICITY":0.0001022,"INCLINATION":50.0057,"RA_OF_ASC_NODE":330.4025,"ARG_OF_PERICENTER":163.3408,"MEAN_ANOMALY":196.7522,"EPHEMERIS_TYPE":0,"CLASSIFICATION_TYPE":"U","NORAD_CAT_ID":68129,"ELEMENT_SET_NO":999,"REV_AT_EPOCH":303,"BSTAR":5.3273e-5,"MEAN_MOTION_DOT":-8.4e-7,"MEAN_MOTION_DDOT":0},{"OBJECT_NAME":"GUOWANG GROUP 20 OBJECT B","OBJECT_ID":"2026-047B","EPOCH":"2026-04-01T05:04:40.456704","MEAN_MOTION":13.87767313,"ECCENTRICITY":1.339e-5,"INCLINATION":50.0054,"RA_OF_ASC_NODE":339.2252,"ARG_OF_PERICENTER":185.6237,"MEAN_ANOMALY":174.4659,"EPHEMERIS_TYPE":0,"CLASSIFICATION_TYPE":"U","NORAD_CAT_ID":68130,"ELEMENT_SET_NO":999,"REV_AT_EPOCH":271,"BSTAR":6.9791497e-5,"MEAN_MOTION_DOT":-6.2e-7,"MEAN_MOTION_DDOT":0},{"OBJECT_NAME":"GUOWANG GROUP 20 OBJECT C","OBJECT_ID":"2026-047C","EPOCH":"2026-04-02T12:08:18.567744","MEAN_MOTION":13.863205,"ECCENTRICITY":6.698e-5,"INCLINATION":50.0019,"RA_OF_ASC_NODE":334.0677,"ARG_OF_PERICENTER":236.5521,"MEAN_ANOMALY":123.5312,"EPHEMERIS_TYPE":0,"CLASSIFICATION_TYPE":"U","NORAD_CAT_ID":68131,"ELEMENT_SET_NO":999,"REV_AT_EPOCH":290,"BSTAR":4.2135642e-5,"MEAN_MOTION_DOT":-9.6e-7,"MEAN_MOTION_DDOT":0}]
